GLOBALSTAR M057         
1 25943U 99058A   24281.86651971 -.00000003  00000+0  81903-3 0  9991
2 25943  52.0017 344.2759 0002343 209.3167 150.7551 12.24801099136015
GLOBALSTAR M059         
1 25944U 99058B   24282.47553344 -.00000039  00000+0  58921-3 0  9998
2 25944  52.0008 168.1289 0000903  83.3261  88.0905 11.99966538132576
GLOBALSTAR M056         
1 25945U 99058C   24281.88171425 -.00000110  00000+0 -25823-3 0  9995
2 25945  51.9954 178.1710 0001669  48.8348  29.6356 12.04777301132214
GLOBALSTAR M031         
1 25946U 99058D   24281.72710721 -.00000174  00000+0 -85045-3 0  9999
2 25946  51.9951  86.0345 0001915  52.3739 320.9571 12.16019122133839
GLOBALSTAR M039         
1 25961U 99062A   24281.81579969 -.00000015  00000+0  49475-3 0  9998
2 25961  51.9856 317.3812 0002937 145.0124 215.0936 12.62305497148347
GLOBALSTAR M034         
1 25962U 99062B   24282.16706340 -.00000041  00000+0  63173-3 0  9993
2 25962  51.9878 306.4921 0013883 285.7787 156.8424 11.79433817108638
GLOBALSTAR M029         
1 25963U 99062C   24282.43721479 -.00000046  00000+0  50279-3 0  9992
2 25963  51.9812  56.4809 0002229   1.0227  38.9493 11.99884167138958
GLOBALSTAR M061         
1 25964U 99062D   24282.51713727 -.00000070  00000+0  16385-3 0  9996
2 25964  51.9767 126.2765 0005410 204.5253 167.9469 11.76766522 91840
